{"type": "FeatureCollection", "features": [ {"type": "Feature", "properties": {"norad_id": 66907, "name": "1998-067XT", "group": "last-30-days", "lat": -39.905450499009405, "lon": -28.259266166131518, "alt_km": 412.1001271822515, "timestamp": "2025-12-19T04:59:47.032413+00:00", "meta": {"OBJECT_NAME": "1998-067XT", "OBJECT_ID": "1998-067XT", "EPOCH": "2025-12-18T14:04:54.777504", "MEAN_MOTION": 15.52162368, "ECCENTRICITY": 0.00039418, "INCLINATION": 51.6304, "RA_OF_ASC_NODE": 113.334, "ARG_OF_PERICENTER": 262.1658, "MEAN_ANOMALY": 97.8884, "EPHEMERIS_TYPE": 0, "CLASSIFICATION_TYPE": "U", "NORAD_CAT_ID": 66907, "ELEMENT_SET_NO": 999, "REV_AT_EPOCH": 252, "BSTAR": 0.0008765902, "MEAN_MOTION_DOT": 0.0005395, "MEAN_MOTION_DDOT": 0}, "tle": {"line1": "1 66907U 98067XT  25352.58674511  .00053950  00000+0  87659-3 0  9991", "line2": "2 66907  51.6304 113.3340 0003941 262.1658  97.8884 15.52162368  2523"}}, "geometry": {"type": "Point", "coordinates": [-28.259266166131518, -39.905450499009405]}}, {"type": "Feature", "properties": {"norad_id": 66908, "name": "1998-067XU", "group": "last-30-days", "lat": -42.1686858206804, "lon": -23.907176242278055, "alt_km": 411.7580677443566, "timestamp": "2025-12-19T04:59:47.032427+00:00", "meta": {"OBJECT_NAME": "1998-067XU", "OBJECT_ID": "1998-067XU", "EPOCH": "2025-12-18T14:03:56.443680", "MEAN_MOTION": 15.52259493, "ECCENTRICITY": 0.00039838, "INCLINATION": 51.6306, "RA_OF_ASC_NODE": 113.3296, "ARG_OF_PERICENTER": 260.0245, "MEAN_ANOMALY": 100.0295, "EPHEMERIS_TYPE": 0, "CLASSIFICATION_TYPE": "U", "NORAD_CAT_ID": 66908, "ELEMENT_SET_NO": 999, "REV_AT_EPOCH": 252, "BSTAR": 0.00087908108, "MEAN_MOTION_DOT": 0.00054298, "MEAN_MOTION_DDOT": 0}, "tle": {"line1": "1 66908U 98067XU  25352.58606995  .00054298  00000+0  87908-3 0  9996", "line2": "2 66908  51.6306 113.3296 0003983 260.0245 100.0295 15.52259493  2520"}}, "geometry": {"type": "Point", "coordinates": [-23.907176242278055, -42.1686858206804]}}, {"type": "Feature", "properties": {"norad_id": 66909, "name": "SILVERSAT", "group": "last-30-days", "lat": -44.7464542220771, "lon": -18.025492388833324, "alt_km": 411.4561251548703, "timestamp": "2025-12-19T04:59:47.032440+00:00", "meta": {"OBJECT_NAME": "SILVERSAT", "OBJECT_ID": "1998-067XV", "EPOCH": "2025-12-18T14:02:44.424960", "MEAN_MOTION": 15.52406005, "ECCENTRICITY": 0.00038673, "INCLINATION": 51.6304, "RA_OF_ASC_NODE": 113.3244, "ARG_OF_PERICENTER": 263.4051, "MEAN_ANOMALY": 96.6498, "EPHEMERIS_TYPE": 0, "CLASSIFICATION_TYPE": "U", "NORAD_CAT_ID": 66909, "ELEMENT_SET_NO": 999, "REV_AT_EPOCH": 252, "BSTAR": 0.00095009624, "MEAN_MOTION_DOT": 0.00059069, "MEAN_MOTION_DDOT": 0}, "tle": {"line1": "1 66909U 98067XV  25352.58523640  .00059069  00000+0  95010-3 0  9996", "line2": "2 66909  51.6304 113.3244 0003867 263.4051  96.6498 15.52406005  2523"}}, "geometry": {"type": "Point", "coordinates": [-18.025492388833324, -44.7464542220771]}}, {"type": "Feature", "properties": {"norad_id": 66910, "name": "1998-067XW", "group": "last-30-days", "lat": -48.85437904992295, "lon": -4.733418939164261, "alt_km": 411.1003957383873, "timestamp": "2025-12-19T04:59:47.032450+00:00", "meta": {"OBJECT_NAME": "1998-067XW", "OBJECT_ID": "1998-067XW", "EPOCH": "2025-12-18T14:00:11.133216", "MEAN_MOTION": 15.5243188, "ECCENTRICITY": 0.00043225, "INCLINATION": 51.6304, "RA_OF_ASC_NODE": 113.3129, "ARG_OF_PERICENTER": 240.7939, "MEAN_ANOMALY": 119.2619, "EPHEMERIS_TYPE": 0, "CLASSIFICATION_TYPE": "U", "NORAD_CAT_ID": 66910, "ELEMENT_SET_NO": 999, "REV_AT_EPOCH": 252, "BSTAR": 0.00081329162, "MEAN_MOTION_DOT": 0.00050492, "MEAN_MOTION_DDOT": 0}, "tle": {"line1": "1 66910U 98067XW  25352.58346219  .00050492  00000+0  81329-3 0  9992", "line2": "2 66910  51.6304 113.3129 0004322 240.7939 119.2619 15.52431880  2523"}}, "geometry": {"type": "Point", "coordinates": [-4.733418939164261, -48.85437904992295]}}, {"type": "Feature", "properties": {"norad_id": 66911, "name": "1998-067XX", "group": "last-30-days", "lat": -51.406077051521706, "lon": 13.260776599754214, "alt_km": 410.2259713143985, "timestamp": "2025-12-19T04:59:47.032460+00:00", "meta": {"OBJECT_NAME": "1998-067XX", "OBJECT_ID": "1998-067XX", "EPOCH": "2025-12-18T15:30:03.053088", "MEAN_MOTION": 15.52835677, "ECCENTRICITY": 0.00040366, "INCLINATION": 51.6301, "RA_OF_ASC_NODE": 112.9797, "ARG_OF_PERICENTER": 247.1524, "MEAN_ANOMALY": 112.904, "EPHEMERIS_TYPE": 0, "CLASSIFICATION_TYPE": "U", "NORAD_CAT_ID": 66911, "ELEMENT_SET_NO": 999, "REV_AT_EPOCH": 252, "BSTAR": 0.0010034262, "MEAN_MOTION_DOT": 0.00063428, "MEAN_MOTION_DDOT": 0}, "tle": {"line1": "1 66911U 98067XX  25352.64586867  .00063428  00000+0  10034-2 0  9992", "line2": "2 66911  51.6301 112.9797 0004036 247.1524 112.9040 15.52835677  2520"}}, "geometry": {"type": "Point", "coordinates": [13.260776599754214, -51.406077051521706]}}, {"type": "Feature", "properties": {"norad_id": 66912, "name": "1998-067XY", "group": "last-30-days", "lat": -30.405835170764583, "lon": -42.020596303937275, "alt_km": 413.1346469994496, "timestamp": "2025-12-19T04:59:47.032470+00:00", "meta": {"OBJECT_NAME": "1998-067XY", "OBJECT_ID": "1998-067XY", "EPOCH": "2025-12-18T14:08:25.948608", "MEAN_MOTION": 15.51695277, "ECCENTRICITY": 0.00040785, "INCLINATION": 51.6305, "RA_OF_ASC_NODE": 113.3494, "ARG_OF_PERICENTER": 255.7838, "MEAN_ANOMALY": 104.2699, "EPHEMERIS_TYPE": 0, "CLASSIFICATION_TYPE": "U", "NORAD_CAT_ID": 66912, "ELEMENT_SET_NO": 999, "REV_AT_EPOCH": 251, "BSTAR": 0.00071420837, "MEAN_MOTION_DOT": 0.00043076, "MEAN_MOTION_DDOT": 0}, "tle": {"line1": "1 66912U 98067XY  25352.58918922  .00043076  00000+0  71421-3 0  9992", "line2": "2 66912  51.6305 113.3494 0004078 255.7838 104.2699 15.51695277  2515"}}, "geometry": {"type": "Point", "coordinates": [-42.020596303937275, -30.405835170764583]}}, {"type": "Feature", "properties": {"norad_id": 66913, "name": "2025-284A", "group": "last-30-days", "lat": 79.1323924978127, "lon": -120.19536476878835, "alt_km": 501.6736210809604, "timestamp": "2025-12-19T04:59:47.032480+00:00", "meta": {"OBJECT_NAME": "2025-284A", "OBJECT_ID": "2025-284A", "EPOCH": "2025-12-18T06:24:29.359008", "MEAN_MOTION": 15.16462178, "ECCENTRICITY": 0.00203688, "INCLINATION": 80.4052, "RA_OF_ASC_NODE": 122.7714, "ARG_OF_PERICENTER": 156.4299, "MEAN_ANOMALY": 203.7866, "EPHEMERIS_TYPE": 0, "CLASSIFICATION_TYPE": "U", "NORAD_CAT_ID": 66913, "ELEMENT_SET_NO": 999, "REV_AT_EPOCH": 196, "BSTAR": 0.00046237905, "MEAN_MOTION_DOT": 9.066e-05, "MEAN_MOTION_DDOT": 0}, "tle": {"line1": "1 66913U 25284A   25352.26700647  .00009066  00000+0  46238-3 0  9991", "line2": "2 66913  80.4052 122.7714 0020368 156.4299 203.7866 15.16462178  1964"}}, "geometry": {"type": "Point", "coordinates": [-120.19536476878835, 79.1323924978127]}}, {"type": "Feature", "properties": {"norad_id": 66914, "name": "2025-284B", "group": "last-30-days", "lat": 46.45589724367804, "lon": -68.68647599510453, "alt_km": 504.9514189007423, "timestamp": "2025-12-19T04:59:47.032490+00:00", "meta": {"OBJECT_NAME": "2025-284B", "OBJECT_ID": "2025-284B", "EPOCH": "2025-12-16T06:51:11.417184", "MEAN_MOTION": 15.18985981, "ECCENTRICITY": 0.00081793, "INCLINATION": 80.4045, "RA_OF_ASC_NODE": 125.2713, "ARG_OF_PERICENTER": 234.9626, "MEAN_ANOMALY": 125.0834, "EPHEMERIS_TYPE": 0, "CLASSIFICATION_TYPE": "U", "NORAD_CAT_ID": 66914, "ELEMENT_SET_NO": 999, "REV_AT_EPOCH": 166, "BSTAR": 0.00038444995, "MEAN_MOTION_DOT": 8.068e-05, "MEAN_MOTION_DDOT": 0}, "tle": {"line1": "1 66914U 25284B   25350.28554881  .00008068  00000+0  38445-3 0  9991", "line2": "2 66914  80.4045 125.2713 0008179 234.9626 125.0834 15.18985981  1668"}}, "geometry": {"type": "Point", "coordinates": [-68.68647599510453, 46.45589724367804]}}, {"type": "Feature", "properties": {"norad_id": 66915, "name": "HULIANWANG DIGUI-105", "group": "last-30-days", "lat": 31.53965564849697, "lon": -120.07983878015992, "alt_km": 882.4171875944021, "timestamp": "2025-12-19T04:59:47.032501+00:00", "meta": {"OBJECT_NAME": "HULIANWANG DIGUI-105", "OBJECT_ID": "2025-285A", "EPOCH": "2025-12-18T21:30:44.562240", "MEAN_MOTION": 14.03717431, "ECCENTRICITY": 0.00080196, "INCLINATION": 50.0059, "RA_OF_ASC_NODE": 92.2022, "ARG_OF_PERICENTER": 303.2815, "MEAN_ANOMALY": 56.7321, "EPHEMERIS_TYPE": 0, "CLASSIFICATION_TYPE": "U", "NORAD_CAT_ID": 66915, "ELEMENT_SET_NO": 999, "REV_AT_EPOCH": 177, "BSTAR": 8.5547263e-05, "MEAN_MOTION_DOT": -1.6e-07, "MEAN_MOTION_DDOT": 0}, "tle": {"line1": "1 66915U 25285A   25352.89634910 -.00000016  00000+0  85547-4 0  9996", "line2": "2 66915  50.0059  92.2022 0008019 303.2815  56.7321 14.03717431  1775"}}, "geometry": {"type": "Point", "coordinates": [-120.07983878015992, 31.53965564849697]}}, {"type": "Feature", "properties": {"norad_id": 66916, "name": "HULIANWANG DIGUI-106", "group": "last-30-days", "lat": 21.317227779286856, "lon": -108.2157975590502, "alt_km": 882.504210242857, "timestamp": "2025-12-19T04:59:47.032513+00:00", "meta": {"OBJECT_NAME": "HULIANWANG DIGUI-106", "OBJECT_ID": "2025-285B", "EPOCH": "2025-12-18T23:09:03.434976", "MEAN_MOTION": 14.03702325, "ECCENTRICITY": 0.00068091, "INCLINATION": 50.0057, "RA_OF_ASC_NODE": 91.8983, "ARG_OF_PERICENTER": 296.7409, "MEAN_ANOMALY": 63.2799, "EPHEMERIS_TYPE": 0, "CLASSIFICATION_TYPE": "U", "NORAD_CAT_ID": 66916, "ELEMENT_SET_NO": 999, "REV_AT_EPOCH": 178, "BSTAR": 8.226031e-05, "MEAN_MOTION_DOT": -2.1e-07, "MEAN_MOTION_DDOT": 0}, "tle": {"line1": "1 66916U 25285B   25352.96462309 -.00000021  00000+0  82260-4 0  9991", "line2": "2 66916  50.0057  91.8983 0006809 296.7409  63.2799 14.03702325  1784"}}, "geometry": {"type": "Point", "coordinates": [-108.2157975590502, 21.317227779286856]}}]}